[{"OBJECT_NAME":"LANDSAT 9","OBJECT_ID":"2021-088A","EPOCH":"2026-03-03T17:17:44.887488","MEAN_MOTION":14.57118604,"ECCENTRICITY":0.0001167,"INCLINATION":98.1951,"RA_OF_ASC_NODE":134.6029,"ARG_OF_PERICENTER":89.9518,"MEAN_ANOMALY":270.1815,"EPHEMERIS_TYPE":0,"CLASSIFICATION_TYPE":"U","NORAD_CAT_ID":49260,"ELEMENT_SET_NO":999,"REV_AT_EPOCH":23564,"BSTAR":0.00013111,"MEAN_MOTION_DOT":5.46e-6,"MEAN_MOTION_DDOT":0},{"OBJECT_NAME":"CSG-2","OBJECT_ID":"2022-008A","EPOCH":"2026-03-03T20:04:05.125152","MEAN_MOTION":14.82151248,"ECCENTRICITY":0.0001387,"INCLINATION":97.8853,"RA_OF_ASC_NODE":247.9565,"ARG_OF_PERICENTER":77.0164,"MEAN_ANOMALY":283.1204,"EPHEMERIS_TYPE":0,"CLASSIFICATION_TYPE":"U","NORAD_CAT_ID":51444,"ELEMENT_SET_NO":999,"REV_AT_EPOCH":22098,"BSTAR":5.7249e-5,"MEAN_MOTION_DOT":4.04e-6,"MEAN_MOTION_DDOT":0},{"OBJECT_NAME":"GAOFEN-12 03","OBJECT_ID":"2022-069A","EPOCH":"2026-03-03T20:23:40.020864","MEAN_MOTION":14.79835742,"ECCENTRICITY":0.0002126,"INCLINATION":97.8426,"RA_OF_ASC_NODE":313.3094,"ARG_OF_PERICENTER":98.6017,"MEAN_ANOMALY":261.5436,"EPHEMERIS_TYPE":0,"CLASSIFICATION_TYPE":"U","NORAD_CAT_ID":52912,"ELEMENT_SET_NO":999,"REV_AT_EPOCH":19903,"BSTAR":0.00020784,"MEAN_MOTION_DOT":1.515e-5,"MEAN_MOTION_DDOT":0},{"OBJECT_NAME":"SWOT","OBJECT_ID":"2022-173A","EPOCH":"2026-03-03T17:40:04.056384","MEAN_MOTION":14.0016857,"ECCENTRICITY":5.15e-5,"INCLINATION":77.6117,"RA_OF_ASC_NODE":177.6557,"ARG_OF_PERICENTER":275.3234,"MEAN_ANOMALY":84.7859,"EPHEMERIS_TYPE":0,"CLASSIFICATION_TYPE":"U","NORAD_CAT_ID":54754,"ELEMENT_SET_NO":999,"REV_AT_EPOCH":16439,"BSTAR":1.7741e-5,"MEAN_MOTION_DOT":2.4e-7,"MEAN_MOTION_DDOT":0},{"OBJECT_NAME":"GAOFEN-12 04","OBJECT_ID":"2023-123A","EPOCH":"2026-03-03T21:05:41.653248","MEAN_MOTION":14.79983248,"ECCENTRICITY":0.0001692,"INCLINATION":97.9132,"RA_OF_ASC_NODE":342.4268,"ARG_OF_PERICENTER":77.5596,"MEAN_ANOMALY":282.5805,"EPHEMERIS_TYPE":0,"CLASSIFICATION_TYPE":"U","NORAD_CAT_ID":57654,"ELEMENT_SET_NO":999,"REV_AT_EPOCH":13705,"BSTAR":0.00023921,"MEAN_MOTION_DOT":1.757e-5,"MEAN_MOTION_DDOT":0},{"OBJECT_NAME":"PARS 1","OBJECT_ID":"2024-039Q","EPOCH":"2026-03-03T21:50:00.978720","MEAN_MOTION":15.43238657,"ECCENTRICITY":0.0011679,"INCLINATION":97.4742,"RA_OF_ASC_NODE":40.755,"ARG_OF_PERICENTER":127.7289,"MEAN_ANOMALY":232.5019,"EPHEMERIS_TYPE":0,"CLASSIFICATION_TYPE":"U","NORAD_CAT_ID":59065,"ELEMENT_SET_NO":999,"REV_AT_EPOCH":11239,"BSTAR":0.0003714,"MEAN_MOTION_DOT":0.00016463,"MEAN_MOTION_DDOT":0},{"OBJECT_NAME":"RESURS-P 4","OBJECT_ID":"2024-061A","EPOCH":"2026-03-03T20:53:47.097600","MEAN_MOTION":15.32864848,"ECCENTRICITY":0.0002743,"INCLINATION":97.2651,"RA_OF_ASC_NODE":12.6325,"ARG_OF_PERICENTER":65.8849,"MEAN_ANOMALY":294.268,"EPHEMERIS_TYPE":0,"CLASSIFICATION_TYPE":"U","NORAD_CAT_ID":59371,"ELEMENT_SET_NO":999,"REV_AT_EPOCH":10763,"BSTAR":0.00018472,"MEAN_MOTION_DOT":5.786e-5,"MEAN_MOTION_DDOT":0},{"OBJECT_NAME":"LEGION 1","OBJECT_ID":"2024-081A","EPOCH":"2026-03-03T17:37:49.722528","MEAN_MOTION":15.17440093,"ECCENTRICITY":0.0005572,"INCLINATION":97.5086,"RA_OF_ASC_NODE":141.6842,"ARG_OF_PERICENTER":39.4225,"MEAN_ANOMALY":320.7413,"EPHEMERIS_TYPE":0,"CLASSIFICATION_TYPE":"U","NORAD_CAT_ID":59625,"ELEMENT_SET_NO":999,"REV_AT_EPOCH":10155,"BSTAR":0.00030644,"MEAN_MOTION_DOT":6.067e-5,"MEAN_MOTION_DDOT":0},{"OBJECT_NAME":"LEGION 2","OBJECT_ID":"2024-081B","EPOCH":"2026-03-03T18:28:29.355744","MEAN_MOTION":15.16492024,"ECCENTRICITY":0.0010738,"INCLINATION":97.5085,"RA_OF_ASC_NODE":141.8042,"ARG_OF_PERICENTER":5.9823,"MEAN_ANOMALY":354.1536,"EPHEMERIS_TYPE":0,"CLASSIFICATION_TYPE":"U","NORAD_CAT_ID":59626,"ELEMENT_SET_NO":999,"REV_AT_EPOCH":10156,"BSTAR":0.00032762,"MEAN_MOTION_DOT":6.323e-5,"MEAN_MOTION_DDOT":0},{"OBJECT_NAME":"ALOS-4 (DAICHI-4)","OBJECT_ID":"2024-123A","EPOCH":"2026-03-03T20:30:00.215424","MEAN_MOTION":14.79474769,"ECCENTRICITY":0.0001541,"INCLINATION":97.92,"RA_OF_ASC_NODE":161.5394,"ARG_OF_PERICENTER":103.2161,"MEAN_ANOMALY":256.9222,"EPHEMERIS_TYPE":0,"CLASSIFICATION_TYPE":"U","NORAD_CAT_ID":60182,"ELEMENT_SET_NO":999,"REV_AT_EPOCH":9030,"BSTAR":0.0001986,"MEAN_MOTION_DOT":1.432e-5,"MEAN_MOTION_DDOT":0},{"OBJECT_NAME":"LEGION 3","OBJECT_ID":"2024-146A","EPOCH":"2026-03-03T17:56:09.781152","MEAN_MOTION":15.16066384,"ECCENTRICITY":0.0013802,"INCLINATION":44.9998,"RA_OF_ASC_NODE":235.7859,"ARG_OF_PERICENTER":288.6821,"MEAN_ANOMALY":71.2559,"EPHEMERIS_TYPE":0,"CLASSIFICATION_TYPE":"U","NORAD_CAT_ID":60452,"ELEMENT_SET_NO":999,"REV_AT_EPOCH":8602,"BSTAR":0.00039275,"MEAN_MOTION_DOT":7.445e-5,"MEAN_MOTION_DDOT":0},{"OBJECT_NAME":"LEGION 4","OBJECT_ID":"2024-146B","EPOCH":"2026-03-03T17:53:48.829056","MEAN_MOTION":15.16125677,"ECCENTRICITY":0.0009562,"INCLINATION":45.0042,"RA_OF_ASC_NODE":327.6452,"ARG_OF_PERICENTER":66.7362,"MEAN_ANOMALY":293.4523,"EPHEMERIS_TYPE":0,"CLASSIFICATION_TYPE":"U","NORAD_CAT_ID":60453,"ELEMENT_SET_NO":999,"REV_AT_EPOCH":8487,"BSTAR":0.00039557,"MEAN_MOTION_DOT":7.504e-5,"MEAN_MOTION_DDOT":0},{"OBJECT_NAME":"SENTINEL-2C","OBJECT_ID":"2024-157A","EPOCH":"2026-03-03T17:13:55.662240","MEAN_MOTION":14.30822672,"ECCENTRICITY":7.72e-5,"INCLINATION":98.5629,"RA_OF_ASC_NODE":139.0149,"ARG_OF_PERICENTER":99.2743,"MEAN_ANOMALY":260.8527,"EPHEMERIS_TYPE":0,"CLASSIFICATION_TYPE":"U","NORAD_CAT_ID":60989,"ELEMENT_SET_NO":999,"REV_AT_EPOCH":7790,"BSTAR":8.4494e-5,"MEAN_MOTION_DOT":1.78e-6,"MEAN_MOTION_DDOT":0},{"OBJECT_NAME":"IONOSFERA-M 1","OBJECT_ID":"2024-199A","EPOCH":"2026-03-03T20:16:33.005280","MEAN_MOTION":14.22733902,"ECCENTRICITY":0.0002106,"INCLINATION":98.7337,"RA_OF_ASC_NODE":297.0401,"ARG_OF_PERICENTER":84.4757,"MEAN_ANOMALY":275.6661,"EPHEMERIS_TYPE":0,"CLASSIFICATION_TYPE":"U","NORAD_CAT_ID":61735,"ELEMENT_SET_NO":999,"REV_AT_EPOCH":11272,"BSTAR":4.8984e-5,"MEAN_MOTION_DOT":6.6e-7,"MEAN_MOTION_DDOT":0},{"OBJECT_NAME":"IONOSFERA-M 2","OBJECT_ID":"2024-199B","EPOCH":"2026-03-03T19:24:58.430304","MEAN_MOTION":14.22736341,"ECCENTRICITY":2.19e-5,"INCLINATION":98.7336,"RA_OF_ASC_NODE":296.9161,"ARG_OF_PERICENTER":65.844,"MEAN_ANOMALY":294.2761,"EPHEMERIS_TYPE":0,"CLASSIFICATION_TYPE":"U","NORAD_CAT_ID":61736,"ELEMENT_SET_NO":999,"REV_AT_EPOCH":11584,"BSTAR":6.3513e-5,"MEAN_MOTION_DOT":9.8e-7,"MEAN_MOTION_DDOT":0},{"OBJECT_NAME":"BIOMASS","OBJECT_ID":"2025-090A","EPOCH":"2026-03-03T11:37:45.575328","MEAN_MOTION":14.67531767,"ECCENTRICITY":0.00012699,"INCLINATION":98.0741,"RA_OF_ASC_NODE":251.3221,"ARG_OF_PERICENTER":88.4534,"MEAN_ANOMALY":271.6816,"EPHEMERIS_TYPE":0,"CLASSIFICATION_TYPE":"U","NORAD_CAT_ID":63772,"ELEMENT_SET_NO":999,"REV_AT_EPOCH":4518,"BSTAR":8.0843645e-5,"MEAN_MOTION_DOT":4.1e-6,"MEAN_MOTION_DDOT":0},{"OBJECT_NAME":"GOSAT-GW (IBUKI GW)","OBJECT_ID":"2025-141A","EPOCH":"2026-03-03T20:23:52.491840","MEAN_MOTION":14.67563198,"ECCENTRICITY":0.0001418,"INCLINATION":98.0499,"RA_OF_ASC_NODE":1.9241,"ARG_OF_PERICENTER":83.7036,"MEAN_ANOMALY":276.433,"EPHEMERIS_TYPE":0,"CLASSIFICATION_TYPE":"U","NORAD_CAT_ID":64694,"ELEMENT_SET_NO":999,"REV_AT_EPOCH":3639,"BSTAR":0.00023609,"MEAN_MOTION_DOT":1.292e-5,"MEAN_MOTION_DDOT":0}]
