LANDSAT 9               
1 49260U 21088A   26062.72065842  .00000546  00000+0  13111-3 0  9994
2 49260  98.1951 134.6029 0001167  89.9518 270.1815 14.57118604235647
CSG-2                   
1 51444U 22008A   26062.83617043  .00000404  00000+0  57249-4 0  9996
2 51444  97.8853 247.9565 0001387  77.0164 283.1204 14.82151248220989
GAOFEN-12 03            
1 52912U 22069A   26062.84976876  .00001515  00000+0  20784-3 0  9994
2 52912  97.8426 313.3094 0002126  98.6017 261.5436 14.79835742199031
SWOT                    
1 54754U 22173A   26062.73615806  .00000024  00000+0  17741-4 0  9991
2 54754  77.6117 177.6557 0000515 275.3234  84.7859 14.00168570164397
GAOFEN-12 04            
1 57654U 23123A   26062.87895432  .00001757  00000+0  23921-3 0  9999
2 57654  97.9132 342.4268 0001692  77.5596 282.5805 14.79983248137057
PARS 1                  
1 59065U 24039Q   26062.90973355  .00016463  00000+0  37140-3 0  9997
2 59065  97.4742  40.7550 0011679 127.7289 232.5019 15.43238657112393
RESURS-P 4              
1 59371U 24061A   26062.87068400  .00005786  00000+0  18472-3 0  9997
2 59371  97.2651  12.6325 0002743  65.8849 294.2680 15.32864848107639
LEGION 1                
1 59625U 24081A   26062.73460327  .00006067  00000+0  30644-3 0  9998
2 59625  97.5086 141.6842 0005572  39.4225 320.7413 15.17440093101550
LEGION 2                
1 59626U 24081B   26062.76978421  .00006323  00000+0  32762-3 0  9999
2 59626  97.5085 141.8042 0010738   5.9823 354.1536 15.16492024101564
ALOS-4 (DAICHI-4)       
1 60182U 24123A   26062.85416916  .00001432  00000+0  19860-3 0  9991
2 60182  97.9200 161.5394 0001541 103.2161 256.9222 14.79474769 90308
LEGION 3                
1 60452U 24146A   26062.74733543  .00007445  00000+0  39275-3 0  9994
2 60452  44.9998 235.7859 0013802 288.6821  71.2559 15.16066384 86025
LEGION 4                
1 60453U 24146B   26062.74570404  .00007504  00000+0  39557-3 0  9999
2 60453  45.0042 327.6452 0009562  66.7362 293.4523 15.16125677 84872
SENTINEL-2C             
1 60989U 24157A   26062.71800535  .00000178  00000+0  84494-4 0  9994
2 60989  98.5629 139.0149 0000772  99.2743 260.8527 14.30822672 77908
IONOSFERA-M 1           
1 61735U 24199A   26062.84482645  .00000066  00000+0  48984-4 0  9992
2 61735  98.7337 297.0401 0002106  84.4757 275.6661 14.22733902112727
IONOSFERA-M 2           
1 61736U 24199B   26062.80900961  .00000098  00000+0  63513-4 0  9995
2 61736  98.7336 296.9161 0000219  65.8440 294.2761 14.22736341115847
BIOMASS                 
1 63772U 25090A   26062.48455527  .00000410  00000+0  80844-4 0  9999
2 63772  98.0741 251.3221 0001269  88.4534 271.6816 14.67531767 45188
GOSAT-GW (IBUKI GW)     
1 64694U 25141A   26062.84991310  .00001292  00000+0  23609-3 0  9999
2 64694  98.0499   1.9241 0001418  83.7036 276.4330 14.67563198 36394
